NORAD_CAT_ID,OBJECT_NAME,OBJECT_TYPE,EPOCH,MEAN_MOTION,ECCENTRICITY,INCLINATION,RA_OF_ASC_NODE,ARG_OF_PERICENTER,MEAN_ANOMALY,BSTAR,MEAN_MOTION_DOT,MEAN_MOTION_DDOT,TLE_LINE0,TLE_LINE1,TLE_LINE2,SEMIMAJOR_AXIS,PERIOD,APOGEE,PERIGEE,DECAYED
52634.0,STARLINK-3974,PAYLOAD,2024-02-05 10:15:43,15.08841116,0.0001549,53.2168,95.5672,86.3786,273.7383,6.4616e-05,7.41e-06,0.0,0 STARLINK-3974,1 52634U 22052AN  24036.42758114  .00000741  00000-0  64616-4 0  9997,2 52634  53.2168  95.5672 0001549  86.3786 273.7383 15.08841116 95763,6917.877,95.437,540.814,538.67,0.0
52634.0,STARLINK-3974,PAYLOAD,2024-02-06 10:06:29,15.08845408,0.0001529,53.2166,91.1063,96.4981,263.6186,-8.4797e-06,-4.23e-06,0.0,0 STARLINK-3974,1 52634U 22052AN  24037.42118017 -.00000423  00000-0 -84797-5 0  9992,2 52634  53.2166  91.1063 0001529  96.4981 263.6186 15.08845408 96290,6917.864,95.437,540.787,538.671,0.0
52634.0,STARLINK-3974,PAYLOAD,2024-02-07 03:35:44,15.08837265,0.0001756,53.2174,87.8357,102.0115,258.1074,9.1201e-06,-1.43e-06,0.0,0 STARLINK-3974,1 52634U 22052AN  24038.14982510 -.00000143  00000-0  91201-5 0  9995,2 52634  53.2174  87.8357 0001756 102.0115 258.1074 15.08837265 96402,6917.889,95.438,540.969,538.539,0.0
52634.0,STARLINK-3974,PAYLOAD,2024-02-07 09:57:17,15.08841242,0.0001597,53.217,86.6466,93.9676,266.1498,2.1625e-05,5.6e-07,0.0,0 STARLINK-3974,1 52634U 22052AN  24038.41478287  .00000056  00000-0  21625-4 0  9990,2 52634  53.2170  86.6466 0001597  93.9676 266.1498 15.08841242 96060,6917.877,95.437,540.846,538.637,0.0
52634.0,STARLINK-3974,PAYLOAD,2024-02-08 01:51:09,15.08803879,0.0001824,53.2178,83.6764,100.345,259.7748,0.00040416,6.144e-05,0.0,0 STARLINK-3974,1 52634U 22052AN  24039.07718868  .00006144  00000-0  40416-3 0  9997,2 52634  53.2178  83.6764 0001824 100.3450 259.7748 15.08803879 96545,6917.991,95.44,541.118,538.594,0.0
52634.0,STARLINK-3974,PAYLOAD,2024-02-08 09:48:04,15.08839304,0.0001539,53.2174,82.1875,99.5905,260.5262,2.4565e-06,-2.49e-06,0.0,0 STARLINK-3974,1 52634U 22052AN  24039.40838727 -.00000249  00000-0  24565-5 0  9991,2 52634  53.2174  82.1875 0001539  99.5905 260.5262 15.08839304 96593,6917.883,95.438,540.812,538.683,0.0
52634.0,STARLINK-3974,PAYLOAD,2024-02-09 11:14:14,15.08841697,0.0001554,53.2178,77.4296,97.8671,262.2497,6.7603e-05,7.88e-06,0.0,0 STARLINK-3974,1 52634U 22052AN  24040.46822672  .00000788  00000-0  67603-4 0  9997,2 52634  53.2178  77.4296 0001554  97.8671 262.2497 15.08841697 96754,6917.875,95.437,540.815,538.665,0.0
52634.0,STARLINK-3974,PAYLOAD,2024-02-10 11:05:02,15.08843312,0.0001441,53.2171,72.9672,106.1952,253.9199,7.7718e-05,9.49e-06,0.0,0 STARLINK-3974,1 52634U 22052AN  24041.46182891  .00000949  00000-0  77718-4 0  9997,2 52634  53.2171  72.9672 0001441 106.1952 253.9199 15.08843312 96523,6917.87,95.437,540.732,538.738,0.0
52634.0,STARLINK-3974,PAYLOAD,2024-02-11 01:23:30,15.08839043,0.0001662,53.2185,70.2916,98.531,261.587,7.7422e-05,9.44e-06,0.0,0 STARLINK-3974,1 52634U 22052AN  24042.05799297  .00000944  00000-0  77422-4 0  9994,2 52634  53.2185  70.2916 0001662  98.5310 261.5870 15.08839043 96995,6917.883,95.438,540.898,538.599,0.0
52634.0,STARLINK-3974,PAYLOAD,2024-02-11 10:55:48,15.08848847,0.0001536,53.2177,68.5055,94.8517,265.265,9.0355e-05,1.151e-05,0.0,0 STARLINK-3974,1 52634U 22052AN  24042.45542670  .00001151  00000-0  90355-4 0  9990,2 52634  53.2177  68.5055 0001536  94.8517 265.2650 15.08848847 97055,6917.853,95.437,540.781,538.656,0.0
52634.0,STARLINK-3974,PAYLOAD,2024-02-12 10:46:35,15.08852887,0.0001639,53.2191,64.0355,87.6601,272.4579,7.0316e-05,8.32e-06,0.0,0 STARLINK-3974,1 52634U 22052AN  24043.44902256  .00000832  00000-0  70316-4 0  9990,2 52634  53.2191  64.0355 0001639  87.6601 272.4579 15.08852887 96826,6917.841,95.437,540.84,538.572,0.0
52634.0,STARLINK-3974,PAYLOAD,2024-02-13 01:05:05,15.08833143,0.0001312,53.2174,61.3669,90.1821,269.9322,-0.00010318,-1.929e-05,0.0,0 STARLINK-3974,1 52634U 22052AN  24044.04520165 -.00001929  00000-0 -10318-3 0  9997,2 52634  53.2174  61.3669 0001312  90.1821 269.9322 15.08833143 97299,6917.901,95.438,540.674,538.859,0.0
52634.0,STARLINK-3974,PAYLOAD,2024-02-13 07:26:37,15.0883837,0.0001523,53.2174,60.1783,92.0922,268.0245,-5.3871e-05,-1.145e-05,0.0,0 STARLINK-3974,1 52634U 22052AN  24044.31015762 -.00001145  00000-0 -53871-4 0  9991,2 52634  53.2174  60.1783 0001523  92.0922 268.0245 15.08838370 97336,6917.885,95.438,540.804,538.697,0.0
52634.0,STARLINK-3974,PAYLOAD,2024-02-14 04:06:37,15.08848207,0.000138,53.217,56.3133,82.6652,277.4497,-7.8289e-06,-4.13e-06,0.0,0 STARLINK-3974,1 52634U 22052AN  24045.17127154 -.00000413  00000-0 -78289-5 0  9993,2 52634  53.2170  56.3133 0001380  82.6652 277.4497 15.08848207 97461,6917.855,95.437,540.675,538.766,0.0
52634.0,STARLINK-3974,PAYLOAD,2024-02-14 10:28:09,15.08856877,0.0001735,53.2177,55.1222,121.1566,238.9597,5.4195e-05,5.75e-06,0.0,0 STARLINK-3974,1 52634U 22052AN  24045.43622159  .00000575  00000-0  54195-4 0  9993,2 52634  53.2177  55.1222 0001735 121.1566 238.9597 15.08856877 97501,6917.829,95.436,540.894,538.494,0.0
52634.0,STARLINK-3974,PAYLOAD,2024-02-15 03:57:25,15.08833283,0.0001386,53.2179,51.852,93.5923,266.5228,7.5327e-05,9.11e-06,0.0,0 STARLINK-3974,1 52634U 22052AN  24046.16488129  .00000911  00000-0  75327-4 0  9995,2 52634  53.2179  51.8520 0001386  93.5923 266.5228 15.08833283 97614,6917.901,95.438,540.725,538.807,0.0
52634.0,STARLINK-3974,PAYLOAD,2024-02-15 10:18:58,15.08837821,0.0001524,53.2176,50.6621,82.411,277.7055,0.00010504,1.384e-05,0.0,0 STARLINK-3974,1 52634U 22052AN  24046.42983977  .00001384  00000-0  10504-3 0  9995,2 52634  53.2176  50.6621 0001524  82.4110 277.7055 15.08837821 97275,6917.887,95.438,540.806,538.698,0.0
52634.0,STARLINK-3974,PAYLOAD,2024-02-15 16:40:30,15.08836945,0.0001509,53.2174,49.4721,80.518,279.5983,8.62e-05,1.084e-05,0.0,0 STARLINK-3974,1 52634U 22052AN  24046.69480145  .00001084  00000-0  86200-4 0  9997,2 52634  53.2174  49.4721 0001509  80.5180 279.5983 15.08836945 97310,6917.89,95.438,540.799,538.711,0.0
52634.0,STARLINK-3974,PAYLOAD,2024-02-16 06:58:58,15.08847304,0.0001505,53.2174,46.8002,84.783,275.3334,0.00016418,2.326e-05,0.0,0 STARLINK-3974,1 52634U 22052AN  24047.29095713  .00002326  00000-0  16418-3 0  9990,2 52634  53.2174  46.8002 0001505  84.7830 275.3334 15.08847304 97783,6917.858,95.437,540.764,538.682,0.0
52634.0,STARLINK-3974,PAYLOAD,2024-02-16 10:09:44,15.08850197,0.0001547,53.2174,46.2028,80.212,279.9047,0.00026018,3.856e-05,0.0,0 STARLINK-3974,1 52634U 22052AN  24047.42343610  .00003856  00000-0  26018-3 0  9993,2 52634  53.2174  46.2028 0001547  80.2120 279.9047 15.08850197 97420,6917.849,95.437,540.784,538.644,0.0
52634.0,STARLINK-3974,PAYLOAD,2024-02-17 03:38:59,15.08838233,0.000163,53.2181,42.9352,95.0691,265.0487,8.5919e-05,1.08e-05,0.0,0 STARLINK-3974,1 52634U 22052AN  24048.15208152  .00001080  00000-0  85919-4 0  9998,2 52634  53.2181  42.9352 0001630  95.0691 265.0487 15.08838233 97916,6917.886,95.438,540.878,538.623,0.0
52634.0,STARLINK-3974,PAYLOAD,2024-02-17 10:00:31,15.0884756,0.0001441,53.2173,41.7413,89.4506,270.6652,0.00020643,3e-05,0.0,0 STARLINK-3974,1 52634U 22052AN  24048.41703641  .00003000  00000-0  20643-3 0  9996,2 52634  53.2173  41.7413 0001441  89.4506 270.6652 15.08847560 97575,6917.857,95.437,540.719,538.725,0.0
52634.0,STARLINK-3974,PAYLOAD,2024-02-17 16:22:04,15.08843712,0.0001409,53.2173,40.5517,82.806,277.3093,0.00012853,1.758e-05,0.0,0 STARLINK-3974,1 52634U 22052AN  24048.68199826  .00001758  00000-0  12853-3 0  9991,2 52634  53.2173  40.5517 0001409  82.8060 277.3093 15.08843712 97616,6917.869,95.437,540.709,538.759,0.0
52634.0,STARLINK-3974,PAYLOAD,2024-02-18 08:15:56,15.0884481,0.0001846,53.2203,37.5813,90.1558,269.9646,7.7451e-05,9.45e-06,0.0,0 STARLINK-3974,1 52634U 22052AN  24049.34440187  .00000945  00000-0  77451-4 0  9997,2 52634  53.2203  37.5813 0001846  90.1558 269.9646 15.08844810 98098,6917.866,95.437,541.008,538.454,0.0
52634.0,STARLINK-3974,PAYLOAD,2024-02-19 08:06:42,15.08850634,0.0001428,53.2187,33.1184,98.7147,261.4006,6.6542e-05,7.72e-06,0.0,0 STARLINK-3974,1 52634U 22052AN  24050.33799708  .00000772  00000-0  66542-4 0  9991,2 52634  53.2187  33.1184 0001428  98.7147 261.4006 15.08850634 97868,6917.848,95.437,540.701,538.725,0.0
52634.0,STARLINK-3974,PAYLOAD,2024-02-19 16:03:39,15.08840024,0.0001561,53.2189,31.632,90.1719,269.9452,-2.9174e-05,-7.52e-06,0.0,0 STARLINK-3974,1 52634U 22052AN  24050.66920633 -.00000752  00000-0 -29174-4 0  9990,2 52634  53.2189  31.6320 0001561  90.1719 269.9452 15.08840024 98292,6917.88,95.438,540.825,538.665,0.0
52634.0,STARLINK-3974,PAYLOAD,2024-02-19 22:25:12,15.08832591,0.000194,53.2196,30.445,83.0369,277.0844,5.1166e-05,5.26e-06,0.0,0 STARLINK-3974,1 52634U 22052AN  24050.93417189  .00000526  00000-0  51166-4 0  9990,2 52634  53.2196  30.4450 0001940  83.0369 277.0844 15.08832591 97951,6917.903,95.438,541.11,538.426,0.0
52634.0,STARLINK-3974,PAYLOAD,2024-02-20 04:46:44,15.08834537,0.000136,53.2172,29.2555,86.1847,273.93,9.5261e-05,1.228e-05,0.0,0 STARLINK-3974,1 52634U 22052AN  24051.19912863  .00001228  00000-0  95261-4 0  9992,2 52634  53.2172  29.2555 0001360  86.1847 273.9300 15.08834537 97996,6917.897,95.438,540.703,538.821,0.0
52634.0,STARLINK-3974,PAYLOAD,2024-02-20 22:15:58,15.08845725,0.0001405,53.219,25.9835,90.6162,269.4991,4.713e-05,4.62e-06,0.0,0 STARLINK-3974,1 52634U 22052AN  24051.92776457  .00000462  00000-0  47130-4 0  9991,2 52634  53.2190  25.9835 0001405  90.6162 269.4991 15.08845725 98101,6917.863,95.437,540.7,538.756,0.0
52634.0,STARLINK-3974,PAYLOAD,2024-02-21 03:02:07,15.08852417,0.0001429,53.2187,25.0929,88.2206,271.895,0.00011133,1.485e-05,0.0,0 STARLINK-3974,1 52634U 22052AN  24052.12647844  .00001485  00000-0  11133-3 0  9990,2 52634  53.2187  25.0929 0001429  88.2206 271.8950 15.08852417 98513,6917.842,95.437,540.696,538.719,0.0
